[{"OBJECT_NAME":"STARLINK-4677","OBJECT_ID":"2022-104N","EPOCH":"2026-03-09T22:04:02.386848","MEAN_MOTION":15.08838495,"ECCENTRICITY":0.00012289,"INCLINATION":53.2164,"RA_OF_ASC_NODE":243.4932,"ARG_OF_PERICENTER":92.9071,"MEAN_ANOMALY":267.2061,"EPHEMERIS_TYPE":0,"CLASSIFICATION_TYPE":"U","NORAD_CAT_ID":53600,"ELEMENT_SET_NO":999,"REV_AT_EPOCH":19564,"BSTAR":4.0658142e-5,"MEAN_MOTION_DOT":3.59e-6,"MEAN_MOTION_DDOT":0},{"OBJECT_NAME":"JILIN-01 KUANFU 02B 2","OBJECT_ID":"2024-169B","EPOCH":"2026-03-09T21:55:18.103008","MEAN_MOTION":15.09238424,"ECCENTRICITY":0.0011661,"INCLINATION":97.5565,"RA_OF_ASC_NODE":159.2927,"ARG_OF_PERICENTER":15.7533,"MEAN_ANOMALY":344.4056,"EPHEMERIS_TYPE":0,"CLASSIFICATION_TYPE":"U","NORAD_CAT_ID":61190,"ELEMENT_SET_NO":999,"REV_AT_EPOCH":8085,"BSTAR":0.0003793675,"MEAN_MOTION_DOT":5.983e-5,"MEAN_MOTION_DDOT":0}]
